start=new Date('2022-10-11T00:00:00.000Z').valueOf();
sats=[{"OBJECT_NAME":"STARLINK-1365","TLE_LINE2":"2 45590  53.0532 299.4478 0002151  44.3576 315.7585 15.06396811137324","NORAD_CAT_ID":"45590","SITE":"AFETR","SEMIMAJOR_AXIS":"6925.358","TIME_SYSTEM":"UTC","FILE":"3601747","DECAY_DATE":null,"MEAN_ANOMALY":"315.7585","OBJECT_TYPE":"PAYLOAD","PERIAPSIS":"545.734","LAUNCH_DATE":"2020-04-22","MEAN_MOTION_DOT":"0.00000680","ARG_OF_PERICENTER":"44.3576","CLASSIFICATION_TYPE":"U","BSTAR":"0.00006455800000","APOAPSIS":"548.713","REF_FRAME":"TEME","GP_ID":"214714396","OBJECT_ID":"2020-025BM","MEAN_MOTION":"15.06396811","EPHEMERIS_TYPE":"0","MEAN_MOTION_DDOT":"0.0000000000000","INCLINATION":"53.0532","RCS_SIZE":"LARGE","ELEMENT_SET_NO":"999","COUNTRY_CODE":"US","PERIOD":"95.592","TLE_LINE1":"1 45590U 20025BM  22283.84271798  .00000680  00000-0  64558-4 0  9991","CENTER_NAME":"EARTH","RA_OF_ASC_NODE":"299.4478","REV_AT_EPOCH":"13732","ECCENTRICITY":"0.00021510","EPOCH":"2022-10-10T20:13:30.833472","MEAN_ELEMENT_THEORY":"SGP4"},{"ARG_OF_PERICENTER":"57.0026","MEAN_MOTION_DOT":"0.00002801","OBJECT_TYPE":"PAYLOAD","LAUNCH_DATE":"2020-06-04","PERIAPSIS":"546.152","REF_FRAME":"TEME","GP_ID":"214715634","OBJECT_ID":"2020-035B","APOAPSIS":"548.265","CLASSIFICATION_TYPE":"U","BSTAR":"0.00020683000000","SITE":"AFETR","NORAD_CAT_ID":"45658","TLE_LINE2":"2 45658  53.0539 259.8517 0001525  57.0026 303.1109 15.06401682130942","OBJECT_NAME":"STARLINK-1441","DECAY_DATE":null,"MEAN_ANOMALY":"303.1109","FILE":"3601747","SEMIMAJOR_AXIS":"6925.343","TIME_SYSTEM":"UTC","EPOCH":"2022-10-10T18:00:49.238496","ECCENTRICITY":"0.00015250","RA_OF_ASC_NODE":"259.8517","REV_AT_EPOCH":"13094","CENTER_NAME":"EARTH","MEAN_ELEMENT_THEORY":"SGP4","PERIOD":"95.592","COUNTRY_CODE":"US","RCS_SIZE":"LARGE","ELEMENT_SET_NO":"999","EPHEMERIS_TYPE":"0","MEAN_MOTION":"15.06401682","MEAN_MOTION_DDOT":"0.0000000000000","INCLINATION":"53.0539","TLE_LINE1":"1 45658U 20035B   22283.75056989  .00002801  00000-0  20683-3 0  9997"},{"CENTER_NAME":"EARTH","REV_AT_EPOCH":"13086","RA_OF_ASC_NODE":"261.9396","ECCENTRICITY":"0.00016580","EPOCH":"2022-10-10T06:55:59.409984","MEAN_ELEMENT_THEORY":"SGP4","MEAN_MOTION_DDOT":"0.0000000000000","INCLINATION":"53.0521","EPHEMERIS_TYPE":"0","MEAN_MOTION":"15.06395618","ELEMENT_SET_NO":"999","RCS_SIZE":"LARGE","COUNTRY_CODE":"US","PERIOD":"95.592","TLE_LINE1":"1 45659U 20035C   22283.28888206  .00001726  00000-0  13477-3 0  9999","LAUNCH_DATE":"2020-06-04","PERIAPSIS":"546.079","OBJECT_TYPE":"PAYLOAD","MEAN_MOTION_DOT":"0.00001726","ARG_OF_PERICENTER":"101.0604","BSTAR":"0.00013477000000","CLASSIFICATION_TYPE":"U","APOAPSIS":"548.375","GP_ID":"214673383","OBJECT_ID":"2020-035C","REF_FRAME":"TEME","TLE_LINE2":"2 45659  53.0521 261.9396 0001658 101.0604 259.0571 15.06395618130866","OBJECT_NAME":"STARLINK-1442","SITE":"AFETR","NORAD_CAT_ID":"45659","TIME_SYSTEM":"UTC","SEMIMAJOR_AXIS":"6925.362","FILE":"3600948","DECAY_DATE":null,"MEAN_ANOMALY":"259.0571"},{"ARG_OF_PERICENTER":"59.3957","MEAN_MOTION_DOT":"-0.00002696","LAUNCH_DATE":"2020-06-04","PERIAPSIS":"546.195","OBJECT_TYPE":"PAYLOAD","OBJECT_ID":"2020-035D","GP_ID":"214714152","REF_FRAME":"TEME","APOAPSIS":"548.187","BSTAR":"-0.00016211000000","CLASSIFICATION_TYPE":"U","SITE":"AFETR","NORAD_CAT_ID":"45660","TLE_LINE2":"2 45660  53.0535 260.4080 0001438  59.3957 300.7174 15.06407260130926","OBJECT_NAME":"STARLINK-1443","DECAY_DATE":null,"MEAN_ANOMALY":"300.7174","FILE":"3601747","TIME_SYSTEM":"UTC","SEMIMAJOR_AXIS":"6925.326","EPOCH":"2022-10-10T15:05:39.163200","ECCENTRICITY":"0.00014380","REV_AT_EPOCH":"13092","RA_OF_ASC_NODE":"260.4080","CENTER_NAME":"EARTH","MEAN_ELEMENT_THEORY":"SGP4","PERIOD":"95.592","COUNTRY_CODE":"US","ELEMENT_SET_NO":"999","RCS_SIZE":"LARGE","MEAN_MOTION_DDOT":"0.0000000000000","INCLINATION":"53.0535","MEAN_MOTION":"15.06407260","EPHEMERIS_TYPE":"0","TLE_LINE1":"1 45660U 20035D   22283.62892550 -.00002696  00000-0 -16211-3 0  9994"},{"CLASSIFICATION_TYPE":"U","BSTAR":"-0.00000105970000","REF_FRAME":"TEME","GP_ID":"214685225","OBJECT_ID":"2020-035E","APOAPSIS":"548.265","MEAN_MOTION_DOT":"-0.00000297","OBJECT_TYPE":"PAYLOAD","LAUNCH_DATE":"2020-06-04","PERIAPSIS":"546.196","ARG_OF_PERICENTER":"64.7757","TIME_SYSTEM":"UTC","SEMIMAJOR_AXIS":"6925.365","DECAY_DATE":null,"MEAN_ANOMALY":"295.3386","FILE":"3601277","TLE_LINE2":"2 45661  53.0529 261.2250 0001494  64.7757 295.3386 15.06394547130475","OBJECT_NAME":"STARLINK-1444","SITE":"AFETR","NORAD_CAT_ID":"45661","MEAN_ELEMENT_THEORY":"SGP4","RA_OF_ASC_NODE":"261.2250","REV_AT_EPOCH":"13047","CENTER_NAME":"EARTH","EPOCH":"2022-10-10T10:45:34.870464","ECCENTRICITY":"0.00014940","TLE_LINE1":"1 45661U 20035E   22283.44832026 -.00000297  00000-0 -10597-5 0  9995","RCS_SIZE":"LARGE","ELEMENT_SET_NO":"999","EPHEMERIS_TYPE":"0","MEAN_MOTION":"15.06394547","MEAN_MOTION_DDOT":"0.0000000000000","INCLINATION":"53.0529","PERIOD":"95.592","COUNTRY_CODE":"US"},{"MEAN_MOTION_DOT":"0.00002368","OBJECT_TYPE":"PAYLOAD","PERIAPSIS":"545.964","LAUNCH_DATE":"2020-06-04","ARG_OF_PERICENTER":"56.6724","CLASSIFICATION_TYPE":"U","BSTAR":"0.00017781000000","REF_FRAME":"TEME","GP_ID":"214715134","OBJECT_ID":"2020-035F","APOAPSIS":"548.468","TLE_LINE2":"2 45662  53.0556 260.2557 0001808  56.6724 303.4438 15.06399221130921","OBJECT_NAME":"STARLINK-1445","SITE":"AFETR","NORAD_CAT_ID":"45662","SEMIMAJOR_AXIS":"6925.351","TIME_SYSTEM":"UTC","MEAN_ANOMALY":"303.4438","DECAY_DATE":null,"FILE":"3601747","RA_OF_ASC_NODE":"260.2557","REV_AT_EPOCH":"13092","CENTER_NAME":"EARTH","EPOCH":"2022-10-10T15:53:25.805472","ECCENTRICITY":"0.00018080","MEAN_ELEMENT_THEORY":"SGP4","RCS_SIZE":"LARGE","ELEMENT_SET_NO":"999","EPHEMERIS_TYPE":"0","MEAN_MOTION":"15.06399221","MEAN_MOTION_DDOT":"0.0000000000000","INCLINATION":"53.0556","PERIOD":"95.592","COUNTRY_CODE":"US","TLE_LINE1":"1 45662U 20035F   22283.66210423  .00002368  00000-0  17781-3 0  9990"},{"ARG_OF_PERICENTER":"58.7821","OBJECT_TYPE":"PAYLOAD","PERIAPSIS":"545.870","LAUNCH_DATE":"2020-06-04","MEAN_MOTION_DOT":"0.00004289","APOAPSIS":"548.514","REF_FRAME":"TEME","OBJECT_ID":"2020-035G","GP_ID":"214713903","CLASSIFICATION_TYPE":"U","BSTAR":"0.00030659000000","SITE":"AFETR","NORAD_CAT_ID":"45663","TLE_LINE2":"2 45663  53.0541 260.2267 0001909  58.7821 301.3355 15.06406952130922","OBJECT_NAME":"STARLINK-1446","FILE":"3601747","MEAN_ANOMALY":"301.3355","DECAY_DATE":null,"TIME_SYSTEM":"UTC","SEMIMAJOR_AXIS":"6925.327","ECCENTRICITY":"0.00019090","EPOCH":"2022-10-10T15:58:44.124672","CENTER_NAME":"EARTH","RA_OF_ASC_NODE":"260.2267","REV_AT_EPOCH":"13092","MEAN_ELEMENT_THEORY":"SGP4","COUNTRY_CODE":"US","PERIOD":"95.592","EPHEMERIS_TYPE":"0","MEAN_MOTION":"15.06406952","MEAN_MOTION_DDOT":"0.0000000000000","INCLINATION":"53.0541","RCS_SIZE":"LARGE","ELEMENT_SET_NO":"999","TLE_LINE1":"1 45663U 20035G   22283.66578848  .00004289  00000-0  30659-3 0  9992"},{"EPOCH":"2022-10-10T15:10:58.365408","ECCENTRICITY":"0.00013810","REV_AT_EPOCH":"13091","RA_OF_ASC_NODE":"260.3946","CENTER_NAME":"EARTH","MEAN_ELEMENT_THEORY":"SGP4","PERIOD":"95.593","COUNTRY_CODE":"US","ELEMENT_SET_NO":"999","RCS_SIZE":"LARGE","INCLINATION":"53.0551","MEAN_MOTION_DDOT":"0.0000000000000","MEAN_MOTION":"15.06393315","EPHEMERIS_TYPE":"0","TLE_LINE1":"1 45665U 20035J   22283.63261997  .00000369  00000-0  43679-4 0  9997","ARG_OF_PERICENTER":"59.5104","MEAN_MOTION_DOT":"0.00000369","LAUNCH_DATE":"2020-06-04","PERIAPSIS":"546.278","OBJECT_TYPE":"PAYLOAD","GP_ID":"214714652","OBJECT_ID":"2020-035J","REF_FRAME":"TEME","APOAPSIS":"548.190","BSTAR":"0.00004367900000","CLASSIFICATION_TYPE":"U","SITE":"AFETR","NORAD_CAT_ID":"45665","OBJECT_NAME":"STARLINK-1448","TLE_LINE2":"2 45665  53.0551 260.3946 0001381  59.5104 300.6021 15.06393315130916","DECAY_DATE":null,"MEAN_ANOMALY":"300.6021","FILE":"3601747","SEMIMAJOR_AXIS":"6925.369","TIME_SYSTEM":"UTC"},{"MEAN_ELEMENT_THEORY":"SGP4","REV_AT_EPOCH":"13046","RA_OF_ASC_NODE":"261.8386","CENTER_NAME":"EARTH","EPOCH":"2022-10-10T07:18:33.909696","ECCENTRICITY":"0.00015590","TLE_LINE1":"1 45666U 20035K   22283.30455914  .00001567  00000-0  12410-3 0  9995","ELEMENT_SET_NO":"999","RCS_SIZE":"LARGE","MEAN_MOTION_DDOT":"0.0000000000000","INCLINATION":"53.0542","MEAN_MOTION":"15.06396166","EPHEMERIS_TYPE":"0","PERIOD":"95.592","COUNTRY_CODE":"US","BSTAR":"0.00012410000000","CLASSIFICATION_TYPE":"U","OBJECT_ID":"2020-035K","GP_ID":"214642638","REF_FRAME":"TEME","APOAPSIS":"548.305","MEAN_MOTION_DOT":"0.00001567","LAUNCH_DATE":"2020-06-04","PERIAPSIS":"546.146","OBJECT_TYPE":"PAYLOAD","ARG_OF_PERICENTER":"71.3819","TIME_SYSTEM":"UTC","SEMIMAJOR_AXIS":"6925.360","DECAY_DATE":null,"MEAN_ANOMALY":"288.7339","FILE":"3600452","TLE_LINE2":"2 45666  53.0542 261.8386 0001559  71.3819 288.7339 15.06396166130468","OBJECT_NAME":"STARLINK-1449","SITE":"AFETR","NORAD_CAT_ID":"45666"},{"EPHEMERIS_TYPE":"0","MEAN_MOTION":"15.06395434","MEAN_MOTION_DDOT":"0.0000000000000","INCLINATION":"53.0564","RCS_SIZE":"LARGE","ELEMENT_SET_NO":"999","COUNTRY_CODE":"US","PERIOD":"95.592","TLE_LINE1":"1 45667U 20035L   22283.90443644  .00001088  00000-0  91915-4 0  9995","CENTER_NAME":"EARTH","RA_OF_ASC_NODE":"259.1959","REV_AT_EPOCH":"13095","ECCENTRICITY":"0.00015830","EPOCH":"2022-10-10T21:42:23.308416","MEAN_ELEMENT_THEORY":"SGP4","OBJECT_NAME":"STARLINK-1450","TLE_LINE2":"2 45667  53.0564 259.1959 0001583  56.9771 303.1370 15.06395434130950","SITE":"AFETR","NORAD_CAT_ID":"45667","SEMIMAJOR_AXIS":"6925.363","TIME_SYSTEM":"UTC","FILE":"3601747","DECAY_DATE":null,"MEAN_ANOMALY":"303.1370","OBJECT_TYPE":"PAYLOAD","LAUNCH_DATE":"2020-06-04","PERIAPSIS":"546.131","MEAN_MOTION_DOT":"0.00001088","ARG_OF_PERICENTER":"56.9771","CLASSIFICATION_TYPE":"U","BSTAR":"0.00009191500000","APOAPSIS":"548.324","REF_FRAME":"TEME","GP_ID":"214715635","OBJECT_ID":"2020-035L"}];
